COSMOS 2058             
1 20465U 90010A   26076.39441083  .00003191  00000+0  18726-3 0  9990
2 20465  82.4668  39.8351 0008293 317.9350  42.1243 15.11390746943405
SL-14 R/B               
1 20466U 90010B   26076.44323773  .00000427  00000+0  48817-4 0  9996
2 20466  82.4986 260.1032 0018322 274.7867  85.1256 14.83575880929633
SL-14 R/B               
1 20511U 90018B   26076.40101564  .00000456  00000+0  54232-4 0  9993
2 20511  82.5216 215.8822 0017547  68.7405 291.5681 14.82153253923726
HST                     
1 20580U 90037B   26076.44616889  .00005963  00000+0  19419-3 0  9990
2 20580  28.4724 347.0829 0001647 206.3818 153.6694 15.29608035774509
SL-16 R/B               
1 20625U 90046B   26076.54398945  .00000041  00000+0  45710-4 0  9997
2 20625  70.9971 281.4179 0016129 289.0955  70.8420 14.15011152849507
COSMOS 2084             
1 20663U 90055A   26076.62515031  .00001737  00000+0  13324-3 0  9993
2 20663  62.7906 308.5130 0015830 192.1604 167.9116 15.05695173937517
SL-6 R/B(2)             
1 20666U 90055D   26076.41915128  .00001776  00000+0  14294-3 0  9994
2 20666  62.7822 227.5634 0026034 348.8994  11.1527 15.03633155939356
SL-8 R/B                
1 20775U 90078B   26076.43680097  .00011095  00000+0  32728-3 0  9993
2 20775  82.9000 244.3409 0360534 347.9210  11.3523 14.89321108810455
SL-8 R/B                
1 21088U 91006B   26076.53156301  .00000076  00000+0  61231-4 0  9999
2 21088  82.9460 164.2162 0022602  16.9308 353.8385 13.77495292765159
OKEAN-3                 
1 21397U 91039A   26076.65830763  .00002176  00000+0  15179-3 0  9994
2 21397  82.5198 329.1249 0013149 307.4541  52.5489 15.04862760866236
COSMOS 2151             
1 21422U 91042A   26076.55429725  .00001995  00000+0  15754-3 0  9995
2 21422  82.4930  76.0871 0013489  39.5486 320.6720 15.00137723864375
SL-14 R/B               
1 21423U 91042B   26076.65823985  .00000455  00000+0  54572-4 0  9995
2 21423  82.4938 212.7104 0016272 210.7236 149.3027 14.81837988854251
