CCSDS_OMM_VERS = 2.0
CREATION_DATE  = 
ORIGINATOR     = 

OBJECT_NAME    = COSMOS 2058
OBJECT_ID      = 1990-010A
CENTER_NAME    = EARTH
REF_FRAME      = TEME
TIME_SYSTEM    = UTC
MEAN_ELEMENT_THEORY = SGP/SGP4

EPOCH          = 2026-03-17T09:27:57.095712
MEAN_MOTION    = 15.11390746
ECCENTRICITY   = .00082935
INCLINATION    = 82.4668
RA_OF_ASC_NODE = 39.8351
ARG_OF_PERICENTER = 317.9350
MEAN_ANOMALY   = 42.1243

EPHEMERIS_TYPE = 0
CLASSIFICATION_TYPE = U
NORAD_CAT_ID   = 20465
ELEMENT_SET_NO = 999
REV_AT_EPOCH   = 94340
BSTAR          = .18726357E-3
MEAN_MOTION_DOT = .3191E-4
MEAN_MOTION_DDOT = 0

CCSDS_OMM_VERS = 2.0
CREATION_DATE  = 
ORIGINATOR     = 

OBJECT_NAME    = SL-14 R/B
OBJECT_ID      = 1990-010B
CENTER_NAME    = EARTH
REF_FRAME      = TEME
TIME_SYSTEM    = UTC
MEAN_ELEMENT_THEORY = SGP/SGP4

EPOCH          = 2026-03-17T10:38:15.739872
MEAN_MOTION    = 14.83575880
ECCENTRICITY   = .0018322
INCLINATION    = 82.4986
RA_OF_ASC_NODE = 260.1032
ARG_OF_PERICENTER = 274.7867
MEAN_ANOMALY   = 85.1256

EPHEMERIS_TYPE = 0
CLASSIFICATION_TYPE = U
NORAD_CAT_ID   = 20466
ELEMENT_SET_NO = 999
REV_AT_EPOCH   = 92963
BSTAR          = .48816847E-4
MEAN_MOTION_DOT = .427E-5
MEAN_MOTION_DDOT = 0

CCSDS_OMM_VERS = 2.0
CREATION_DATE  = 
ORIGINATOR     = 

OBJECT_NAME    = SL-14 R/B
OBJECT_ID      = 1990-018B
CENTER_NAME    = EARTH
REF_FRAME      = TEME
TIME_SYSTEM    = UTC
MEAN_ELEMENT_THEORY = SGP/SGP4

EPOCH          = 2026-03-17T09:37:27.751296
MEAN_MOTION    = 14.82153253
ECCENTRICITY   = .00175471
INCLINATION    = 82.5216
RA_OF_ASC_NODE = 215.8822
ARG_OF_PERICENTER = 68.7405
MEAN_ANOMALY   = 291.5681

EPHEMERIS_TYPE = 0
CLASSIFICATION_TYPE = U
NORAD_CAT_ID   = 20511
ELEMENT_SET_NO = 999
REV_AT_EPOCH   = 92372
BSTAR          = .5423222E-4
MEAN_MOTION_DOT = .456E-5
MEAN_MOTION_DDOT = 0

CCSDS_OMM_VERS = 2.0
CREATION_DATE  = 
ORIGINATOR     = 

OBJECT_NAME    = HST
OBJECT_ID      = 1990-037B
CENTER_NAME    = EARTH
REF_FRAME      = TEME
TIME_SYSTEM    = UTC
MEAN_ELEMENT_THEORY = SGP/SGP4

EPOCH          = 2026-03-17T10:42:28.992096
MEAN_MOTION    = 15.29608035
ECCENTRICITY   = .00016474
INCLINATION    = 28.4724
RA_OF_ASC_NODE = 347.0829
ARG_OF_PERICENTER = 206.3818
MEAN_ANOMALY   = 153.6694

EPHEMERIS_TYPE = 0
CLASSIFICATION_TYPE = U
NORAD_CAT_ID   = 20580
ELEMENT_SET_NO = 999
REV_AT_EPOCH   = 77450
BSTAR          = .1941907E-3
MEAN_MOTION_DOT = .5963E-4
MEAN_MOTION_DDOT = 0

CCSDS_OMM_VERS = 2.0
CREATION_DATE  = 
ORIGINATOR     = 

OBJECT_NAME    = SL-16 R/B
OBJECT_ID      = 1990-046B
CENTER_NAME    = EARTH
REF_FRAME      = TEME
TIME_SYSTEM    = UTC
MEAN_ELEMENT_THEORY = SGP/SGP4

EPOCH          = 2026-03-17T13:03:20.688480
MEAN_MOTION    = 14.15011152
ECCENTRICITY   = .00161291
INCLINATION    = 70.9971
RA_OF_ASC_NODE = 281.4179
ARG_OF_PERICENTER = 289.0955
MEAN_ANOMALY   = 70.8420

EPHEMERIS_TYPE = 0
CLASSIFICATION_TYPE = U
NORAD_CAT_ID   = 20625
ELEMENT_SET_NO = 999
REV_AT_EPOCH   = 84950
BSTAR          = .4570955E-4
MEAN_MOTION_DOT = .41E-6
MEAN_MOTION_DDOT = 0

CCSDS_OMM_VERS = 2.0
CREATION_DATE  = 
ORIGINATOR     = 

OBJECT_NAME    = COSMOS 2084
OBJECT_ID      = 1990-055A
CENTER_NAME    = EARTH
REF_FRAME      = TEME
TIME_SYSTEM    = UTC
MEAN_ELEMENT_THEORY = SGP/SGP4

EPOCH          = 2026-03-17T15:00:12.986784
MEAN_MOTION    = 15.05695173
ECCENTRICITY   = .001583
INCLINATION    = 62.7906
RA_OF_ASC_NODE = 308.5130
ARG_OF_PERICENTER = 192.1604
MEAN_ANOMALY   = 167.9116

EPHEMERIS_TYPE = 0
CLASSIFICATION_TYPE = U
NORAD_CAT_ID   = 20663
ELEMENT_SET_NO = 999
REV_AT_EPOCH   = 93751
BSTAR          = .13324459E-3
MEAN_MOTION_DOT = .1737E-4
MEAN_MOTION_DDOT = 0

CCSDS_OMM_VERS = 2.0
CREATION_DATE  = 
ORIGINATOR     = 

OBJECT_NAME    = SL-6 R/B(2)
OBJECT_ID      = 1990-055D
CENTER_NAME    = EARTH
REF_FRAME      = TEME
TIME_SYSTEM    = UTC
MEAN_ELEMENT_THEORY = SGP/SGP4

EPOCH          = 2026-03-17T10:03:34.670592
MEAN_MOTION    = 15.03633155
ECCENTRICITY   = .00260348
INCLINATION    = 62.7822
RA_OF_ASC_NODE = 227.5634
ARG_OF_PERICENTER = 348.8994
MEAN_ANOMALY   = 11.1527

EPHEMERIS_TYPE = 0
CLASSIFICATION_TYPE = U
NORAD_CAT_ID   = 20666
ELEMENT_SET_NO = 999
REV_AT_EPOCH   = 93935
BSTAR          = .14293527E-3
MEAN_MOTION_DOT = .1776E-4
MEAN_MOTION_DDOT = 0

CCSDS_OMM_VERS = 2.0
CREATION_DATE  = 
ORIGINATOR     = 

OBJECT_NAME    = SL-8 R/B
OBJECT_ID      = 1990-078B
CENTER_NAME    = EARTH
REF_FRAME      = TEME
TIME_SYSTEM    = UTC
MEAN_ELEMENT_THEORY = SGP/SGP4

EPOCH          = 2026-03-17T10:28:59.603808
MEAN_MOTION    = 14.89321108
ECCENTRICITY   = .03605343
INCLINATION    = 82.9000
RA_OF_ASC_NODE = 244.3409
ARG_OF_PERICENTER = 347.9210
MEAN_ANOMALY   = 11.3523

EPHEMERIS_TYPE = 0
CLASSIFICATION_TYPE = U
NORAD_CAT_ID   = 20775
ELEMENT_SET_NO = 999
REV_AT_EPOCH   = 81045
BSTAR          = .32728491E-3
MEAN_MOTION_DOT = .11095E-3
MEAN_MOTION_DDOT = 0

CCSDS_OMM_VERS = 2.0
CREATION_DATE  = 
ORIGINATOR     = 

OBJECT_NAME    = SL-8 R/B
OBJECT_ID      = 1991-006B
CENTER_NAME    = EARTH
REF_FRAME      = TEME
TIME_SYSTEM    = UTC
MEAN_ELEMENT_THEORY = SGP/SGP4

EPOCH          = 2026-03-17T12:45:27.044064
MEAN_MOTION    = 13.77495292
ECCENTRICITY   = .00226029
INCLINATION    = 82.9460
RA_OF_ASC_NODE = 164.2162
ARG_OF_PERICENTER = 16.9308
MEAN_ANOMALY   = 353.8385

EPHEMERIS_TYPE = 0
CLASSIFICATION_TYPE = U
NORAD_CAT_ID   = 21088
ELEMENT_SET_NO = 999
REV_AT_EPOCH   = 76515
BSTAR          = .61231104E-4
MEAN_MOTION_DOT = .76E-6
MEAN_MOTION_DDOT = 0

CCSDS_OMM_VERS = 2.0
CREATION_DATE  = 
ORIGINATOR     = 

OBJECT_NAME    = OKEAN-3
OBJECT_ID      = 1991-039A
CENTER_NAME    = EARTH
REF_FRAME      = TEME
TIME_SYSTEM    = UTC
MEAN_ELEMENT_THEORY = SGP/SGP4

EPOCH          = 2026-03-17T15:47:57.779232
MEAN_MOTION    = 15.04862760
ECCENTRICITY   = .00131494
INCLINATION    = 82.5198
RA_OF_ASC_NODE = 329.1249
ARG_OF_PERICENTER = 307.4541
MEAN_ANOMALY   = 52.5489

EPHEMERIS_TYPE = 0
CLASSIFICATION_TYPE = U
NORAD_CAT_ID   = 21397
ELEMENT_SET_NO = 999
REV_AT_EPOCH   = 86623
BSTAR          = .15179104E-3
MEAN_MOTION_DOT = .2176E-4
MEAN_MOTION_DDOT = 0

CCSDS_OMM_VERS = 2.0
CREATION_DATE  = 
ORIGINATOR     = 

OBJECT_NAME    = COSMOS 2151
OBJECT_ID      = 1991-042A
CENTER_NAME    = EARTH
REF_FRAME      = TEME
TIME_SYSTEM    = UTC
MEAN_ELEMENT_THEORY = SGP/SGP4

EPOCH          = 2026-03-17T13:18:11.282400
MEAN_MOTION    = 15.00137723
ECCENTRICITY   = .00134895
INCLINATION    = 82.4930
RA_OF_ASC_NODE = 76.0871
ARG_OF_PERICENTER = 39.5486
MEAN_ANOMALY   = 320.6720

EPHEMERIS_TYPE = 0
CLASSIFICATION_TYPE = U
NORAD_CAT_ID   = 21422
ELEMENT_SET_NO = 999
REV_AT_EPOCH   = 86437
BSTAR          = .1575428E-3
MEAN_MOTION_DOT = .1995E-4
MEAN_MOTION_DDOT = 0

CCSDS_OMM_VERS = 2.0
CREATION_DATE  = 
ORIGINATOR     = 

OBJECT_NAME    = SL-14 R/B
OBJECT_ID      = 1991-042B
CENTER_NAME    = EARTH
REF_FRAME      = TEME
TIME_SYSTEM    = UTC
MEAN_ELEMENT_THEORY = SGP/SGP4

EPOCH          = 2026-03-17T15:47:51.923040
MEAN_MOTION    = 14.81837988
ECCENTRICITY   = .00162728
INCLINATION    = 82.4938
RA_OF_ASC_NODE = 212.7104
ARG_OF_PERICENTER = 210.7236
MEAN_ANOMALY   = 149.3027

EPHEMERIS_TYPE = 0
CLASSIFICATION_TYPE = U
NORAD_CAT_ID   = 21423
ELEMENT_SET_NO = 999
REV_AT_EPOCH   = 85425
BSTAR          = .54572493E-4
MEAN_MOTION_DOT = .455E-5
MEAN_MOTION_DDOT = 0

